[{"OBJECT_NAME":"TRANSPORTER-12 OBJECT AY","OBJECT_ID":"2025-009AY","EPOCH":"2026-03-09T05:15:09.595584","MEAN_MOTION":15.3641145,"ECCENTRICITY":8.363e-5,"INCLINATION":97.4067,"RA_OF_ASC_NODE":153.6184,"ARG_OF_PERICENTER":214.022,"MEAN_ANOMALY":146.097,"EPHEMERIS_TYPE":0,"CLASSIFICATION_TYPE":"U","NORAD_CAT_ID":62655,"ELEMENT_SET_NO":999,"REV_AT_EPOCH":6382,"BSTAR":0.00083878699,"MEAN_MOTION_DOT":0.00029789,"MEAN_MOTION_DDOT":0},{"OBJECT_NAME":"CZ-4B DEB","OBJECT_ID":"2010-051E","EPOCH":"2026-03-08T22:01:50.125728","MEAN_MOTION":15.23766972,"ECCENTRICITY":0.00561086,"INCLINATION":97.769,"RA_OF_ASC_NODE":240.5013,"ARG_OF_PERICENTER":301.1291,"MEAN_ANOMALY":58.4449,"EPHEMERIS_TYPE":0,"CLASSIFICATION_TYPE":"U","NORAD_CAT_ID":38184,"ELEMENT_SET_NO":999,"REV_AT_EPOCH":82066,"BSTAR":0.0024566319,"MEAN_MOTION_DOT":0.00062123,"MEAN_MOTION_DDOT":0}]
